#dP2021 10 13  0  0  0.00000000      96 __u+U ITR00 FIT  IAC
## 2179 259200.00000000   900.00000000 59500 0.0000000000000
+  114   C06C07C08C09C10C11C12C13C14C16C19C20C21C22C23C24C25
+        C26C27C28C29C30C32C33C34C35C36C37C38C39C40C41C42C43
+        C44C45C46E01E02E03E04E05E07E08E09E11E12E13E14E15E18
+        E19E21E24E25E26E27E30E31E33E36G01G02G03G04G05G06G07
+        G08G09G10G11G12G13G14G15G16G17G18G19G20G21G22G23G24
+        G25G26G27G28G29G30G31G32R01R02R03R04R05R07R08R09R11
+        R12R13R14R15R16R17R18R19R20R21R22R24  0  0  0  0  0
++         7  8  7  7  8  8  6  8  7  8  8  8  5  6  6  8  8
++         7  7  6  8  8  8  8  6  7  7  6  7  7  9  7  6  6
++         6  8  7  7  6  7  6  7  6  7  7  7  7  7  6  6  6
++         5  7  7  7  6  7  8  7  6  8  6  5  7  5  6  5  6
++         6  7  5  6  7  7  7  5  6  7  7  7  6  7  7  7  6
++         6  6  8  7  5  6  7  6  7  6  7  7  6  7  7  7  7
++         8  9  7  7  7  6  7  8  7  7  9  8  0  0  0  0  0
%c M  cc GPS ccc cccc cccc cccc cccc ccccc ccccc ccccc ccccc
%c cc cc ccc ccc cccc cccc cccc cccc ccccc ccccc ccccc ccccc
%f  0.0000000  0.000000000  0.00000000000  0.000000000000000
%f  0.0000000  0.000000000  0.00000000000  0.000000000000000
%i    0    0    0    0      0      0      0      0         0
%i    0    0    0    0      0      0      0      0         0
/* INFORMATION & ANALYSIS CENTER (IAC)      ULTRA-RAPID DATA
/* S/V CLOCKS ARE ALIGNED TO GNSS TIME                      
/* G:C1WC2W R:C1PC2P E:C1XC5X C:C2IC6I J:C1CC2S             
/* PCV:IGS14_2163 OL/AL:FES2004  NONE     YN ORB:CoN CLK:CoN
*  2021 10 13  3 15  0.00000000
PC06 -12655.065007  40321.167278   -514.784429    326.957936
PC07  -4270.147667  29281.525868 -29986.753530   -208.119685
PC08 -16080.984483  22791.594675  31560.451101   -869.860018
PC09  -8204.796924  40540.372011  -9019.371252   -179.967725
PC10   3882.139950  32281.902671 -26352.218482      6.282600
PC11   8734.154759 -26441.684781  -2128.325916    627.927848
PC12  16643.018674 -16982.501740  14668.906054    740.414704
PC13  -7675.023619  24149.262820  33734.179026    440.250465
PC14   -149.245748 -20446.112547 -19001.382649    589.597221
PC16 -14788.238670  39481.418633   3381.753651   -766.676729
PC19   8965.508938  23425.793449  12232.535844    949.466798
PC20  -7100.826974  15294.410683  22235.618883   -793.776268
PC21  19814.871660   2485.718643 -19478.119316   -931.795353
PC22  20398.750458  18280.799754  -5278.993830   -957.495356
PC23 -20375.812224  -8735.979585  16955.903771   -969.535643
PC24  19183.439407 -14050.021559  14628.068396   -971.945833
PC25  -2149.102116 -16109.706117  22683.043207   -840.866919
PC26  27458.003628  -5046.240358   -712.239964    836.928390
PC27 -17731.797758   7643.240522 -20168.434213    612.279062
PC28 -11442.394737 -12781.999580 -22008.328580    -15.520392
PC29   -557.380428  25680.301878  10895.927075    459.742927
PC30 -13008.405209  23665.170324  -7070.855526    483.303514
PC32 -19882.812927  -2402.853059  19441.167554   -964.524757
PC33  -9029.171699 -23383.736816 -12281.396370   -968.115372
PC34  12636.925843 -24072.593113   6245.869491   -561.099497
PC35  11706.851183  12842.006449  21835.483244    -48.894845
PC36   1310.773894  16209.586942 -22647.351176   -777.648847
PC37 -27592.908382   3724.006240   1697.192134   -874.074065
PC38 -23560.721670  23909.457349  25404.671292    181.878331
PC39 -15891.030001  37943.873916   9603.988916     33.591884
PC40  -7245.750690  24096.787226 -33793.126803    207.957160
PC41 -20374.468479 -18418.278025   4958.768019   -924.001742
PC42   7835.033188 -14683.514700 -22367.145475   -962.134653
PC43   1035.891136 -25883.237727 -10365.003407   -957.129572
PC44  17544.050774  -7964.926988  20169.802225    429.433019
PC45  20551.429202   8482.513037 -16870.976317    572.391204
PC46 -18093.894232  14420.199817 -15562.729658     42.288694
PE01  14820.735130 -11469.894669  22923.676492   -494.327022
PE02 -14655.909778  11552.617744 -22964.290351    253.099475
PE03  -8562.222239  21641.194249  18274.798530   -484.541103
PE04  -4805.268557 -29138.285240  -2015.585051   -876.607006
PE05 -17141.456811   1304.100244  24092.237859   -242.191241
PE07  15631.465357  19538.214721 -15808.935503   -595.446178
PE08   5208.378843  29085.769372   1642.841693   5922.526688
PE09 -15685.845249 -19339.194271  16011.117461   5500.119134
PE11 -14618.187166  -8180.028337 -24413.200458   5275.014205
PE12   4059.258594 -21421.888265 -20019.224007   4963.433703
PE13  14177.788486   8532.054912  24546.125399    422.536549
PE14  11659.301099 -18556.121642  13875.314935  -1603.006151
PE15  -4065.493458  21401.490364  20041.261765    787.070049
PE18 -18784.681765   9728.627372 -22395.340705  -1760.570522
PE19   9936.705859 -19637.330500 -19794.301868    400.818932
PE21  27506.400707   1155.447974  10887.758898   -693.321441
PE24 -24258.834025 -14382.095678   8949.364387  -1168.130935
PE25 -27573.048093  -1338.772099 -10660.436208   -549.852192
PE26  24264.374403  -9990.676736  13714.038243   1236.195976
PE27  24960.686865  13764.725814  -7987.523327   -141.043391
PE30   6342.640591  18181.536042 -22483.716735   2544.804668
PE31  -7731.893973 -18193.202106  22046.694727   -486.712072
PE33  19870.939044 -21622.755951  -3731.215481   -463.817480
PE36 -24008.190615   9297.452382 -14599.776941   -275.252638
PG01   7560.915043 -18522.885631 -17567.694286    540.923207
PG02 -21783.367063  15094.424339  -1661.273778   -637.162236
PG03  -2037.238156 -16852.045438 -20559.898141   -322.921880
PG04    718.884085 -26461.786931  -1638.467913   -203.710050
PG05 -12825.842875  10166.483614  20781.166027    -57.482495
PG06 -22223.626578   3095.086648 -14192.800351     93.446095
PG07  -8769.650406 -12896.689474  21873.602811    261.504624
PG08   7158.316919 -22117.904997  12535.542062    -39.901821
PG09  -8150.580945 -23498.728802   9209.705612   -361.785475
PG10  24004.951078  11708.647331   -653.040388   -222.765205
PG11 -23899.067346  11192.117262  -2950.265994     21.148474
PG12   -308.097429  16594.646578 -21015.830838   -110.757210
PG13 -12834.389372  15955.216390  16684.385648    198.793055
PG14 -23463.520106 -12468.760560  -1015.262201    -17.808993
PG15  -4684.243210  23133.202734  11447.542792   -114.359835
PG16  16998.823701  -5132.284087  19650.303527   -406.136729
PG17 -12467.104443 -13334.242151 -18852.506990    518.381011
PG18   9650.530104  11636.463232  21832.717356    310.941155
PG19 -14652.907039  -3741.754368 -22113.904024     65.140816
PG20 -21667.430231   4008.492538  14612.542099    518.666874
PG21  14586.153179 -19398.444661  -9413.424107    147.341610
PG22   6058.091457 -14442.461613 -21277.228114   -490.624771
PG23  18206.076940  16503.993954  10158.318179     45.819507
PG24 -10408.502495  20335.451997 -13468.382144    252.590312
PG25  11028.586294  18326.812254 -16182.699036    223.517808
PG26  24442.871781   2792.356584  10312.433841    144.285452
PG27  12298.234392 -13316.423439  19095.927031   -205.495441
PG28 -23572.807716  -9072.360915  -7321.410357    483.596533
PG29   3782.396398  25403.611185   6585.776412   -425.434535
PG30 -18500.609613  -4694.650698  18631.355057   -481.840078
PG31  23497.156577  -4280.474216 -12205.437099   -144.652263
PG32  14709.413968   8991.101805 -20138.710559     -9.615749
PR01  15221.711018   7498.441669 -19048.655228     86.613610
PR02   5132.233120 -11940.837404 -21901.780770    496.464649
PR03  -6880.978248 -22128.970755 -10558.675418     44.612305
PR04 -14748.444225 -19757.813801   6537.202464    109.131263
PR05 -14420.121149  -6468.003759  20016.444385     80.598720
PR07   7276.180276  22344.785122  10013.811924    -40.670169
PR08  14805.459459  19741.278346  -6469.761366    -61.461339
PR09 -17292.248116   8486.737966 -16740.663755     17.980249
PR11  18080.042840   7482.104379 -16342.386718     50.034837
PR12  25505.349571   -407.498814    747.915772    269.621988
PR13  17981.801206  -7987.007050  16224.007349    -62.012473
PR14   -973.035766 -11097.294625  22964.497369     69.843011
PR15 -18486.887650  -7606.526900  15870.248978    100.892086
PR16 -25311.283504   1626.578136  -1962.530478    -23.064387
PR17   6503.195765 -21654.054080 -11850.126622    465.967357
PR18  -4874.578233 -11337.551883 -22301.472683     93.587764
PR19 -13465.659465   3577.094946 -21362.250715   -162.904475
PR20 -15489.329861  19331.689572  -6144.431856    -57.459046
PR21  -5731.989747  21133.209830  13053.495259   -246.349427
PR22   5348.235733  10598.306297  22576.645382   -138.578281
PR24  15055.232020 -19883.692123   5431.805002     62.469154
EOF
